{
  "type": "FeatureCollection",
  "features": [
    {
      "type": "Feature",
      "properties": {
        "norad_id": 30153,
        "name": "FENGYUN 1C DEB",
        "group": "fengyun-1c-debris",
        "lat": -21.816236056457754,
        "lon": -27.19168082138278,
        "alt_km": 871.9883098414148,
        "timestamp": "2025-12-04T23:34:05.996912+00:00",
        "meta_object_name": "FENGYUN 1C DEB",
        "meta_object_id": "1999-025TJ",
        "meta_epoch": "2025-12-03T21:50:19.984992",
        "meta_mean_motion": 13.78731597,
        "meta_eccentricity": 0.02008215,
        "meta_inclination": 100.4661,
        "meta_ra_of_asc_node": 327.3826,
        "meta_arg_of_pericenter": 27.9772,
        "meta_mean_anomaly": 33.217,
        "meta_ephemeris_type": 0,
        "meta_classification_type": "U",
        "meta_norad_cat_id": 30153,
        "meta_element_set_no": 999,
        "meta_rev_at_epoch": 94653,
        "meta_bstar": 0.001678671,
        "meta_mean_motion_dot": 1.931e-05,
        "meta_mean_motion_ddot": 0,
        "tle_line1": "1 30153U 99025TJ  25337.90995353  .00001931  00000+0  16787-2 0  9994",
        "tle_line2": "2 30153 100.4661 327.3826 0200821  27.9772  33.2170 13.78731597946534"
      },
      "geometry": {
        "type": "Point",
        "coordinates": [
          -27.19168082138278,
          -21.816236056457754
        ]
      }
    },
    {
      "type": "Feature",
      "properties": {
        "norad_id": 30154,
        "name": "FENGYUN 1C DEB",
        "group": "fengyun-1c-debris",
        "lat": 29.26182761872095,
        "lon": 16.741807670301643,
        "alt_km": 1072.8448884142126,
        "timestamp": "2025-12-04T23:34:05.996922+00:00",
        "meta_object_name": "FENGYUN 1C DEB",
        "meta_object_id": "1999-025TK",
        "meta_epoch": "2025-12-02T02:15:41.257728",
        "meta_mean_motion": 13.85922523,
        "meta_eccentricity": 0.01824653,
        "meta_inclination": 98.4506,
        "meta_ra_of_asc_node": 18.9121,
        "meta_arg_of_pericenter": 227.7645,
        "meta_mean_anomaly": 161.336,
        "meta_ephemeris_type": 0,
        "meta_classification_type": "U",
        "meta_norad_cat_id": 30154,
        "meta_element_set_no": 999,
        "meta_rev_at_epoch": 94837,
        "meta_bstar": 0.0017171262,
        "meta_mean_motion_dot": 2.209e-05,
        "meta_mean_motion_ddot": 0,
        "tle_line1": "1 30154U 99025TK  25336.09422752  .00002209  00000+0  17171-2 0  9999",
        "tle_line2": "2 30154  98.4506  18.9121 0182465 227.7645 161.3360 13.85922523948379"
      },
      "geometry": {
        "type": "Point",
        "coordinates": [
          16.741807670301643,
          29.26182761872095
        ]
      }
    },
    {
      "type": "Feature",
      "properties": {
        "norad_id": 30155,
        "name": "FENGYUN 1C DEB",
        "group": "fengyun-1c-debris",
        "lat": -44.688049314012396,
        "lon": -137.44574915450724,
        "alt_km": 1124.3687394428316,
        "timestamp": "2025-12-04T23:34:05.996932+00:00",
        "meta_object_name": "FENGYUN 1C DEB",
        "meta_object_id": "1999-025TL",
        "meta_epoch": "2025-12-04T10:13:51.138912",
        "meta_mean_motion": 13.7375555,
        "meta_eccentricity": 0.0241876,
        "meta_inclination": 99.7525,
        "meta_ra_of_asc_node": 51.782,
        "meta_arg_of_pericenter": 5.4506,
        "meta_mean_anomaly": 354.919,
        "meta_ephemeris_type": 0,
        "meta_classification_type": "U",
        "meta_norad_cat_id": 30155,
        "meta_element_set_no": 999,
        "meta_rev_at_epoch": 93750,
        "meta_bstar": 0.003283,
        "meta_mean_motion_dot": 3.745e-05,
        "meta_mean_motion_ddot": 0,
        "tle_line1": "1 30155U 99025TL  25338.42628633  .00003745  00000+0  32830-2 0  9990",
        "tle_line2": "2 30155  99.7525  51.7820 0241876   5.4506 354.9190 13.73755550937500"
      },
      "geometry": {
        "type": "Point",
        "coordinates": [
          -137.44574915450724,
          -44.688049314012396
        ]
      }
    },
    {
      "type": "Feature",
      "properties": {
        "norad_id": 30156,
        "name": "FENGYUN 1C DEB",
        "group": "fengyun-1c-debris",
        "lat": -71.64267631974491,
        "lon": -25.351548485110424,
        "alt_km": 821.6348334760569,
        "timestamp": "2025-12-04T23:34:05.996942+00:00",
        "meta_object_name": "FENGYUN 1C DEB",
        "meta_object_id": "1999-025TM",
        "meta_epoch": "2025-12-03T08:41:31.729056",
        "meta_mean_motion": 13.80756146,
        "meta_eccentricity": 0.020016,
        "meta_inclination": 98.9176,
        "meta_ra_of_asc_node": 304.8793,
        "meta_arg_of_pericenter": 288.1138,
        "meta_mean_anomaly": 230.476,
        "meta_ephemeris_type": 0,
        "meta_classification_type": "U",
        "meta_norad_cat_id": 30156,
        "meta_element_set_no": 999,
        "meta_rev_at_epoch": 94561,
        "meta_bstar": 0.0024003,
        "meta_mean_motion_dot": 2.895e-05,
        "meta_mean_motion_ddot": 0,
        "tle_line1": "1 30156U 99025TM  25337.36217279  .00002895  00000+0  24003-2 0  9991",
        "tle_line2": "2 30156  98.9176 304.8793 0200160 288.1138 230.4760 13.80756146945619"
      },
      "geometry": {
        "type": "Point",
        "coordinates": [
          -25.351548485110424,
          -71.64267631974491
        ]
      }
    },
    {
      "type": "Feature",
      "properties": {
        "norad_id": 30157,
        "name": "FENGYUN 1C DEB",
        "group": "fengyun-1c-debris",
        "lat": -32.072770414606225,
        "lon": -109.70134056846537,
        "alt_km": 722.0976333382278,
        "timestamp": "2025-12-04T23:34:05.996953+00:00",
        "meta_object_name": "FENGYUN 1C DEB",
        "meta_object_id": "1999-025TN",
        "meta_epoch": "2025-12-04T06:13:49.285344",
        "meta_mean_motion": 14.44893119,
        "meta_eccentricity": 0.0036911,
        "meta_inclination": 98.7174,
        "meta_ra_of_asc_node": 75.075,
        "meta_arg_of_pericenter": 217.8089,
        "meta_mean_anomaly": 199.005,
        "meta_ephemeris_type": 0,
        "meta_classification_type": "U",
        "meta_norad_cat_id": 30157,
        "meta_element_set_no": 999,
        "meta_rev_at_epoch": 97950,
        "meta_bstar": 0.0054888,
        "meta_mean_motion_dot": 0.00019275,
        "meta_mean_motion_ddot": 0,
        "tle_line1": "1 30157U 99025TN  25338.25959821  .00019275  00000+0  54888-2 0  9991",
        "tle_line2": "2 30157  98.7174  75.0750 0036911 217.8089 199.0050 14.44893119979501"
      },
      "geometry": {
        "type": "Point",
        "coordinates": [
          -109.70134056846537,
          -32.072770414606225
        ]
      }
    },
    {
      "type": "Feature",
      "properties": {
        "norad_id": 30160,
        "name": "FENGYUN 1C DEB",
        "group": "fengyun-1c-debris",
        "lat": -55.41282401853074,
        "lon": 95.3439362419121,
        "alt_km": 1092.1416237146923,
        "timestamp": "2025-12-04T23:34:05.996963+00:00",
        "meta_object_name": "FENGYUN 1C DEB",
        "meta_object_id": "1999-025TR",
        "meta_epoch": "2025-12-04T08:51:41.884992",
        "meta_mean_motion": 13.42875357,
        "meta_eccentricity": 0.0342363,
        "meta_inclination": 98.8853,
        "meta_ra_of_asc_node": 287.915,
        "meta_arg_of_pericenter": 148.9552,
        "meta_mean_anomaly": 2.6477,
        "meta_ephemeris_type": 0,
        "meta_classification_type": "U",
        "meta_norad_cat_id": 30160,
        "meta_element_set_no": 999,
        "meta_rev_at_epoch": 92301,
        "meta_bstar": 0.0011585,
        "meta_mean_motion_dot": 8.99e-06,
        "meta_mean_motion_ddot": 0,
        "tle_line1": "1 30160U 99025TR  25338.36923478  .00000899  00000+0  11585-2 0  9995",
        "tle_line2": "2 30160  98.8853 287.9150 0342363 148.9552   2.6477 13.42875357923016"
      },
      "geometry": {
        "type": "Point",
        "coordinates": [
          95.3439362419121,
          -55.41282401853074
        ]
      }
    },
    {
      "type": "Feature",
      "properties": {
        "norad_id": 30161,
        "name": "FENGYUN 1C DEB",
        "group": "fengyun-1c-debris",
        "lat": -40.36425496817753,
        "lon": -24.97575594450487,
        "alt_km": 894.9222251780357,
        "timestamp": "2025-12-04T23:34:05.996973+00:00",
        "meta_object_name": "FENGYUN 1C DEB",
        "meta_object_id": "1999-025TS",
        "meta_epoch": "2025-12-03T12:47:55.443840",
        "meta_mean_motion": 13.49671407,
        "meta_eccentricity": 0.03287653,
        "meta_inclination": 100.5042,
        "meta_ra_of_asc_node": 324.4231,
        "meta_arg_of_pericenter": 280.1288,
        "meta_mean_anomaly": 200.6248,
        "meta_ephemeris_type": 0,
        "meta_classification_type": "U",
        "meta_norad_cat_id": 30161,
        "meta_element_set_no": 999,
        "meta_rev_at_epoch": 92435,
        "meta_bstar": 0.0028846104,
        "meta_mean_motion_dot": 2.5e-05,
        "meta_mean_motion_ddot": 0,
        "tle_line1": "1 30161U 99025TS  25337.53328060  .00002500  00000+0  28846-2 0  9999",
        "tle_line2": "2 30161 100.5042 324.4231 0328765 280.1288 200.6248 13.49671407924351"
      },
      "geometry": {
        "type": "Point",
        "coordinates": [
          -24.97575594450487,
          -40.36425496817753
        ]
      }
    }
  ]
}